ONEWEB-0228             
1 48780U 21045P   23198.51047007  .00000272  00000+0  68908-3 0  9990
2 48780  87.9019 111.4014 0001836  75.3589 284.7744 13.15548803105347
